FENGYUN 1C DEB          
1 30117U 99025RW  17345.96246825  .00000269  00000-0  16969-3 0  9990
2 30117  98.8921  16.4804 0168678 137.4215 340.9009 14.05205051559257
